{
  "type": "FeatureCollection",
  "features": [
    {
      "type": "Feature",
      "properties": {
        "norad_id": 66855,
        "name": "STARLINK-36090",
        "group": "last-30-days",
        "lat": -42.97109186069183,
        "lon": -13.120331498246221,
        "alt_km": 347.67281676238053,
        "timestamp": "2025-12-20T09:36:00.353844+00:00",
        "meta_object_name": "STARLINK-36090",
        "meta_object_id": "2025-281H",
        "meta_epoch": "2025-12-20T04:00:00.999072",
        "meta_mean_motion": 15.75419858,
        "meta_eccentricity": 0.0001401,
        "meta_inclination": 43.0009,
        "meta_ra_of_asc_node": 76.8627,
        "meta_arg_of_pericenter": 275.2803,
        "meta_mean_anomaly": 111.1135,
        "meta_ephemeris_type": 0,
        "meta_classification_type": "U",
        "meta_norad_cat_id": 66855,
        "meta_element_set_no": 999,
        "meta_rev_at_epoch": 246,
        "meta_bstar": -0.0090087,
        "meta_mean_motion_dot": -0.01264099,
        "meta_mean_motion_ddot": 0,
        "tle_line1": "1 66855U 25281H   25354.16667823 -.01264099  00000+0 -90087-2 0  9994",
        "tle_line2": "2 66855  43.0009  76.8627 0001401 275.2803 111.1135 15.75419858  2465"
      },
      "geometry": {
        "type": "Point",
        "coordinates": [
          -13.120331498246221,
          -42.97109186069183
        ]
      }
    },
    {
      "type": "Feature",
      "properties": {
        "norad_id": 66856,
        "name": "STARLINK-36072",
        "group": "last-30-days",
        "lat": -42.908538947976425,
        "lon": -10.509913685256564,
        "alt_km": 347.6657443770164,
        "timestamp": "2025-12-20T09:36:00.353856+00:00",
        "meta_object_name": "STARLINK-36072",
        "meta_object_id": "2025-281J",
        "meta_epoch": "2025-12-20T04:00:00.999072",
        "meta_mean_motion": 15.75416966,
        "meta_eccentricity": 0.0001408,
        "meta_inclination": 43.0008,
        "meta_ra_of_asc_node": 76.8576,
        "meta_arg_of_pericenter": 271.9275,
        "meta_mean_anomaly": 116.3855,
        "meta_ephemeris_type": 0,
        "meta_classification_type": "U",
        "meta_norad_cat_id": 66856,
        "meta_element_set_no": 999,
        "meta_rev_at_epoch": 258,
        "meta_bstar": -0.0089988,
        "meta_mean_motion_dot": -0.01262704,
        "meta_mean_motion_ddot": 0,
        "tle_line1": "1 66856U 25281J   25354.16667823 -.01262704  00000+0 -89988-2 0  9994",
        "tle_line2": "2 66856  43.0008  76.8576 0001408 271.9275 116.3855 15.75416966  2587"
      },
      "geometry": {
        "type": "Point",
        "coordinates": [
          -10.509913685256564,
          -42.908538947976425
        ]
      }
    },
    {
      "type": "Feature",
      "properties": {
        "norad_id": 66857,
        "name": "STARLINK-36083",
        "group": "last-30-days",
        "lat": -42.78696873857135,
        "lon": -7.9132538814888544,
        "alt_km": 347.64071530059846,
        "timestamp": "2025-12-20T09:36:00.353868+00:00",
        "meta_object_name": "STARLINK-36083",
        "meta_object_id": "2025-281K",
        "meta_epoch": "2025-12-20T04:00:00.999072",
        "meta_mean_motion": 15.75423503,
        "meta_eccentricity": 0.0001422,
        "meta_inclination": 43.0007,
        "meta_ra_of_asc_node": 76.8528,
        "meta_arg_of_pericenter": 275.335,
        "meta_mean_anomaly": 114.8883,
        "meta_ephemeris_type": 0,
        "meta_classification_type": "U",
        "meta_norad_cat_id": 66857,
        "meta_element_set_no": 999,
        "meta_rev_at_epoch": 258,
        "meta_bstar": -0.0090319,
        "meta_mean_motion_dot": -0.01267218,
        "meta_mean_motion_ddot": 0,
        "tle_line1": "1 66857U 25281K   25354.16667823 -.01267218  00000+0 -90319-2 0  9990",
        "tle_line2": "2 66857  43.0007  76.8528 0001422 275.3350 114.8883 15.75423503  2581"
      },
      "geometry": {
        "type": "Point",
        "coordinates": [
          -7.9132538814888544,
          -42.78696873857135
        ]
      }
    },
    {
      "type": "Feature",
      "properties": {
        "norad_id": 66858,
        "name": "STARLINK-35118",
        "group": "last-30-days",
        "lat": -42.60631489080772,
        "lon": -5.321896094772342,
        "alt_km": 347.574500651579,
        "timestamp": "2025-12-20T09:36:00.353878+00:00",
        "meta_object_name": "STARLINK-35118",
        "meta_object_id": "2025-281L",
        "meta_epoch": "2025-12-20T04:00:00.999072",
        "meta_mean_motion": 15.75422928,
        "meta_eccentricity": 0.0001516,
        "meta_inclination": 43.0007,
        "meta_ra_of_asc_node": 76.8483,
        "meta_arg_of_pericenter": 272.5199,
        "meta_mean_anomaly": 119.6221,
        "meta_ephemeris_type": 0,
        "meta_classification_type": "U",
        "meta_norad_cat_id": 66858,
        "meta_element_set_no": 999,
        "meta_rev_at_epoch": 237,
        "meta_bstar": -0.009046,
        "meta_mean_motion_dot": -0.01269015,
        "meta_mean_motion_ddot": 0,
        "tle_line1": "1 66858U 25281L   25354.16667823 -.01269015  00000+0 -90460-2 0  9995",
        "tle_line2": "2 66858  43.0007  76.8483 0001516 272.5199 119.6221 15.75422928  2372"
      },
      "geometry": {
        "type": "Point",
        "coordinates": [
          -5.321896094772342,
          -42.60631489080772
        ]
      }
    },
    {
      "type": "Feature",
      "properties": {
        "norad_id": 66859,
        "name": "STARLINK-35646",
        "group": "last-30-days",
        "lat": -42.36772179286909,
        "lon": -2.7505221324657323,
        "alt_km": 347.59932291560835,
        "timestamp": "2025-12-20T09:36:00.353888+00:00",
        "meta_object_name": "STARLINK-35646",
        "meta_object_id": "2025-281M",
        "meta_epoch": "2025-12-20T04:00:00.999072",
        "meta_mean_motion": 15.75423648,
        "meta_eccentricity": 0.0001467,
        "meta_inclination": 43.0008,
        "meta_ra_of_asc_node": 76.843,
        "meta_arg_of_pericenter": 276.3337,
        "meta_mean_anomaly": 117.7271,
        "meta_ephemeris_type": 0,
        "meta_classification_type": "U",
        "meta_norad_cat_id": 66859,
        "meta_element_set_no": 999,
        "meta_rev_at_epoch": 258,
        "meta_bstar": -0.0090669,
        "meta_mean_motion_dot": -0.0127165,
        "meta_mean_motion_ddot": 0,
        "tle_line1": "1 66859U 25281M   25354.16667823 -.01271650  00000+0 -90669-2 0  9995",
        "tle_line2": "2 66859  43.0008  76.8430 0001467 276.3337 117.7271 15.75423648  2584"
      },
      "geometry": {
        "type": "Point",
        "coordinates": [
          -2.7505221324657323,
          -42.36772179286909
        ]
      }
    },
    {
      "type": "Feature",
      "properties": {
        "norad_id": 66860,
        "name": "STARLINK-35987",
        "group": "last-30-days",
        "lat": -40.340837131611764,
        "lon": 9.705561641606828,
        "alt_km": 347.5390523392243,
        "timestamp": "2025-12-20T09:36:00.353898+00:00",
        "meta_object_name": "STARLINK-35987",
        "meta_object_id": "2025-281N",
        "meta_epoch": "2025-12-20T04:00:00.999072",
        "meta_mean_motion": 15.75424281,
        "meta_eccentricity": 0.0001513,
        "meta_inclination": 43.0009,
        "meta_ra_of_asc_node": 76.8192,
        "meta_arg_of_pericenter": 268.4103,
        "meta_mean_anomaly": 135.2339,
        "meta_ephemeris_type": 0,
        "meta_classification_type": "U",
        "meta_norad_cat_id": 66860,
        "meta_element_set_no": 999,
        "meta_rev_at_epoch": 259,
        "meta_bstar": -0.0090542,
        "meta_mean_motion_dot": -0.01270107,
        "meta_mean_motion_ddot": 0,
        "tle_line1": "1 66860U 25281N   25354.16667823 -.01270107  00000+0 -90542-2 0  9993",
        "tle_line2": "2 66860  43.0009  76.8192 0001513 268.4103 135.2339 15.75424281  2592"
      },
      "geometry": {
        "type": "Point",
        "coordinates": [
          9.705561641606828,
          -40.340837131611764
        ]
      }
    },
    {
      "type": "Feature",
      "properties": {
        "norad_id": 66861,
        "name": "STARLINK-35991",
        "group": "last-30-days",
        "lat": -41.719283509392284,
        "lon": 2.327931161087916,
        "alt_km": 347.5298728621474,
        "timestamp": "2025-12-20T09:36:00.353910+00:00",
        "meta_object_name": "STARLINK-35991",
        "meta_object_id": "2025-281P",
        "meta_epoch": "2025-12-20T04:00:00.999072",
        "meta_mean_motion": 15.75424386,
        "meta_eccentricity": 0.0001548,
        "meta_inclination": 43.0009,
        "meta_ra_of_asc_node": 76.8337,
        "meta_arg_of_pericenter": 271.7069,
        "meta_mean_anomaly": 126.1892,
        "meta_ephemeris_type": 0,
        "meta_classification_type": "U",
        "meta_norad_cat_id": 66861,
        "meta_element_set_no": 999,
        "meta_rev_at_epoch": 258,
        "meta_bstar": -0.0090599,
        "meta_mean_motion_dot": -0.01270855,
        "meta_mean_motion_ddot": 0,
        "tle_line1": "1 66861U 25281P   25354.16667823 -.01270855  00000+0 -90599-2 0  9996",
        "tle_line2": "2 66861  43.0009  76.8337 0001548 271.7069 126.1892 15.75424386  2588"
      },
      "geometry": {
        "type": "Point",
        "coordinates": [
          2.327931161087916,
          -41.719283509392284
        ]
      }
    }
  ]
}